[{"OBJECT_NAME":"STARLINK-30395","OBJECT_ID":"2023-138E","EPOCH":"2026-03-09T22:00:01.999584","MEAN_MOTION":15.26704896,"ECCENTRICITY":0.00013413,"INCLINATION":43.0011,"RA_OF_ASC_NODE":232.8338,"ARG_OF_PERICENTER":272.4288,"MEAN_ANOMALY":94.4771,"EPHEMERIS_TYPE":0,"CLASSIFICATION_TYPE":"U","NORAD_CAT_ID":57812,"ELEMENT_SET_NO":999,"REV_AT_EPOCH":578,"BSTAR":0.0026901843,"MEAN_MOTION_DOT":0.00072536,"MEAN_MOTION_DDOT":0},{"OBJECT_NAME":"CZ-6A DEB","OBJECT_ID":"2022-151ADD","EPOCH":"2026-03-09T18:20:47.462208","MEAN_MOTION":15.20298953,"ECCENTRICITY":0.00285544,"INCLINATION":98.6309,"RA_OF_ASC_NODE":152.6578,"ARG_OF_PERICENTER":173.2603,"MEAN_ANOMALY":186.9019,"EPHEMERIS_TYPE":0,"CLASSIFICATION_TYPE":"U","NORAD_CAT_ID":56285,"ELEMENT_SET_NO":999,"REV_AT_EPOCH":17182,"BSTAR":0.0066325049,"MEAN_MOTION_DOT":0.00148374,"MEAN_MOTION_DDOT":0}]
